[{"OBJECT_NAME":"TEIKYOSAT-4 (OORURI)","OBJECT_ID":"2021-102B","EPOCH":"2026-03-09T16:12:29.535840","MEAN_MOTION":15.09119208,"ECCENTRICITY":0.00103447,"INCLINATION":97.3797,"RA_OF_ASC_NODE":101.9931,"ARG_OF_PERICENTER":276.5421,"MEAN_ANOMALY":83.463,"EPHEMERIS_TYPE":0,"CLASSIFICATION_TYPE":"U","NORAD_CAT_ID":49396,"ELEMENT_SET_NO":999,"REV_AT_EPOCH":23771,"BSTAR":0.00015739844,"MEAN_MOTION_DOT":2.438e-5,"MEAN_MOTION_DDOT":0},{"OBJECT_NAME":"STARLINK-3335","OBJECT_ID":"2022-001D","EPOCH":"2026-03-09T13:10:41.253312","MEAN_MOTION":15.08834941,"ECCENTRICITY":0.00011913,"INCLINATION":53.218,"RA_OF_ASC_NODE":159.7568,"ARG_OF_PERICENTER":95.404,"MEAN_ANOMALY":264.7088,"EPHEMERIS_TYPE":0,"CLASSIFICATION_TYPE":"U","NORAD_CAT_ID":50806,"ELEMENT_SET_NO":999,"REV_AT_EPOCH":23052,"BSTAR":8.8792374e-5,"MEAN_MOTION_DOT":1.125e-5,"MEAN_MOTION_DDOT":0}]
