TEIKYOSAT-4 (OORURI)    
1 49396U 21102B   26068.67534185  .00002438  00000+0  15740-3 0  9994
2 49396  97.3797 101.9931 0010345 276.5421  83.4630 15.09119208237719
STARLINK-3335           
1 50806U 22001D   26068.54908858  .00001125  00000+0  88792-4 0  9999
2 50806  53.2180 159.7568 0001191  95.4040 264.7088 15.08834941230525
